0 DELTA 1 DEB
1 09835U 73086GD  13281.90532546 -.00000422  00000-0 -66427-2 0  1582
2 09835 101.3415 055.0856 0662686 107.4042 016.8738 11.32855352589205
0 DELTA 1 DEB
1 09835U 73086GD  13284.20012913 -.00000433  00000-0 -68193-2 0  1594
2 09835 101.3416 056.8330 0662466 103.8098 015.7247 11.32853724589461
0 DELTA 1 DEB
1 09835U 73086GD  13287.20228403 -.00000413  00000-0 -64918-2 0  1601
2 09835 101.3419 059.1190 0662196 099.1059 019.3308 11.32850822589800
0 DELTA 1 DEB
1 09835U 73086GD  13291.33193258 -.00000399  00000-0 -62610-2 0  1610
2 09835 101.3422 062.2637 0661858 092.6322 301.1180 11.32846963590274
0 DELTA 1 DEB
1 09835U 73086GD  13294.33431740 -.00000389  00000-0 -60865-2 0  1624
2 09835 101.3425 064.5499 0661633 087.9229 305.5959 11.32844496590611
